GUOWANG GROUP 20 OBJECT*
1 68133U 26047E   26093.00475373 -.00000089  00000+0  48671-4 0  9996
2 68133  50.0078 332.0369 0000826  23.1230 336.9704 13.85521979  2976
GUOWANG GROUP 20 OBJECT*
1 68134U 26047F   26092.56694514 -.00000033  00000+0  95092-4 0  9995
2 68134  50.0093 333.7419 0000629 256.4099 103.6728 13.87190720  2909
GUOWANG GROUP 20 OBJECT*
1 68135U 26047G   26094.44545227  .00000018  00000+0  14576-3 0  9990
2 68135  50.0135 326.3688 0000767 146.6368 213.4577 13.83778399  3177
GUOWANG GROUP 20 OBJECT*
1 68136U 26047H   26092.49226754 -.00000088  00000+0  48251-4 0  9991
2 68136  50.0086 334.0113 0000909 305.9014  54.1799 13.87381469  2894
GUOWANG GROUP 20 OBJECT*
1 68137U 26047J   26092.70556402 -.00000116  00000+0  24623-4 0  9991
2 68137  50.0058 333.1317 0000669 182.6269 177.4625 13.87066479  2938
CZ-8A R/B               
1 68138U 26047K   26094.93926271  .00000100  00000+0  13597-3 0  9993
2 68138  49.9533 322.1326 0044767 228.3877 131.3191 14.12233568  3260
SHIYAN-30 03            
1 68139U 26048A   26094.94152154  .00003605  00000+0  35352-3 0  9993
2 68139  35.0014 346.7457 0002460  71.9235 288.1738 14.91779281  3422
SHIYAN-30 04            
1 68140U 26048B   26094.94221671  .00003456  00000+0  33898-3 0  9993
2 68140  34.9929 346.7430 0000950  82.9254 277.1559 14.91776795  3429
CZ-2D R/B               
1 68141U 26048C   26094.95240118  .00002347  00000+0  20960-3 0  9996
2 68141  35.1309 346.2790 0015917 196.7489 163.2695 14.95596830  3433
STARLINK-36604          
1 68142U 26049A   26094.82630085  .00067928  00000+0  45355-3 0  9991
2 68142  97.2844 115.3768 0001679  73.7833 286.3617 15.75144911  3534
STARLINK-36995          
1 68143U 26049B   26094.91668981  .00154468  00000+0  10216-2 0  9991
2 68143  97.2845 115.4826 0001311  93.5674  84.7805 15.75105704  4838
STARLINK-37020          
1 68144U 26049C   26094.91668981  .00111295  00000+0  73932-3 0  9998
2 68144  97.2846 115.5066 0001390  78.3247 154.0359 15.75128361  4830
STARLINK-36244          
1 68145U 26049D   26094.89900619  .00132764  00000+0  87838-3 0  9997
2 68145  97.2844 115.4300 0001589 109.0000 251.1437 15.75159033  3541
STARLINK-36980          
1 68146U 26049E   26094.86965588  .00172051  00000+0  88192-3 0  9998
2 68146  97.2850 115.4711 0001428 101.3455 258.7973 15.80802219  3541
STARLINK-37055          
1 68147U 26049F   26094.87115599  .00183230  00000+0  93762-3 0  9999
2 68147  97.2850 115.4687 0000786 100.3690 259.7667 15.80810307  3548
STARLINK-36981          
1 68148U 26049G   26094.86815195  .00109686  00000+0  56710-3 0  9993
2 68148  97.2854 115.4730 0001246  97.0217 263.1193 15.80781608  3545
