[{"OBJECT_NAME":"GUOWANG GROUP 20 OBJECT E","OBJECT_ID":"2026-047E","EPOCH":"2026-04-03T00:06:50.722272","MEAN_MOTION":13.85521979,"ECCENTRICITY":8.265e-5,"INCLINATION":50.0078,"RA_OF_ASC_NODE":332.0369,"ARG_OF_PERICENTER":23.123,"MEAN_ANOMALY":336.9704,"EPHEMERIS_TYPE":0,"CLASSIFICATION_TYPE":"U","NORAD_CAT_ID":68133,"ELEMENT_SET_NO":999,"REV_AT_EPOCH":297,"BSTAR":4.8670636e-5,"MEAN_MOTION_DOT":-8.9e-7,"MEAN_MOTION_DDOT":0},{"OBJECT_NAME":"GUOWANG GROUP 20 OBJECT F","OBJECT_ID":"2026-047F","EPOCH":"2026-04-02T13:36:24.060096","MEAN_MOTION":13.8719072,"ECCENTRICITY":6.29e-5,"INCLINATION":50.0093,"RA_OF_ASC_NODE":333.7419,"ARG_OF_PERICENTER":256.4099,"MEAN_ANOMALY":103.6728,"EPHEMERIS_TYPE":0,"CLASSIFICATION_TYPE":"U","NORAD_CAT_ID":68134,"ELEMENT_SET_NO":999,"REV_AT_EPOCH":290,"BSTAR":9.5092278e-5,"MEAN_MOTION_DOT":-3.3e-7,"MEAN_MOTION_DDOT":0},{"OBJECT_NAME":"GUOWANG GROUP 20 OBJECT G","OBJECT_ID":"2026-047G","EPOCH":"2026-04-04T10:41:27.076128","MEAN_MOTION":13.83778399,"ECCENTRICITY":7.67e-5,"INCLINATION":50.0135,"RA_OF_ASC_NODE":326.3688,"ARG_OF_PERICENTER":146.6368,"MEAN_ANOMALY":213.4577,"EPHEMERIS_TYPE":0,"CLASSIFICATION_TYPE":"U","NORAD_CAT_ID":68135,"ELEMENT_SET_NO":999,"REV_AT_EPOCH":317,"BSTAR":0.00014576,"MEAN_MOTION_DOT":1.8e-7,"MEAN_MOTION_DDOT":0},{"OBJECT_NAME":"GUOWANG GROUP 20 OBJECT H","OBJECT_ID":"2026-047H","EPOCH":"2026-04-02T11:48:51.915456","MEAN_MOTION":13.87381469,"ECCENTRICITY":9.093e-5,"INCLINATION":50.0086,"RA_OF_ASC_NODE":334.0113,"ARG_OF_PERICENTER":305.9014,"MEAN_ANOMALY":54.1799,"EPHEMERIS_TYPE":0,"CLASSIFICATION_TYPE":"U","NORAD_CAT_ID":68136,"ELEMENT_SET_NO":999,"REV_AT_EPOCH":289,"BSTAR":4.8250788e-5,"MEAN_MOTION_DOT":-8.8e-7,"MEAN_MOTION_DDOT":0},{"OBJECT_NAME":"GUOWANG GROUP 20 OBJECT J","OBJECT_ID":"2026-047J","EPOCH":"2026-04-02T16:56:00.731328","MEAN_MOTION":13.87066479,"ECCENTRICITY":6.698e-5,"INCLINATION":50.0058,"RA_OF_ASC_NODE":333.1317,"ARG_OF_PERICENTER":182.6269,"MEAN_ANOMALY":177.4625,"EPHEMERIS_TYPE":0,"CLASSIFICATION_TYPE":"U","NORAD_CAT_ID":68137,"ELEMENT_SET_NO":999,"REV_AT_EPOCH":293,"BSTAR":2.4623265e-5,"MEAN_MOTION_DOT":-1.16e-6,"MEAN_MOTION_DDOT":0},{"OBJECT_NAME":"CZ-8A R/B","OBJECT_ID":"2026-047K","EPOCH":"2026-04-04T22:32:32.298144","MEAN_MOTION":14.12233568,"ECCENTRICITY":0.00447675,"INCLINATION":49.9533,"RA_OF_ASC_NODE":322.1326,"ARG_OF_PERICENTER":228.3877,"MEAN_ANOMALY":131.3191,"EPHEMERIS_TYPE":0,"CLASSIFICATION_TYPE":"U","NORAD_CAT_ID":68138,"ELEMENT_SET_NO":999,"REV_AT_EPOCH":326,"BSTAR":0.00013597094,"MEAN_MOTION_DOT":1.0e-6,"MEAN_MOTION_DDOT":0},{"OBJECT_NAME":"SHIYAN-30 03","OBJECT_ID":"2026-048A","EPOCH":"2026-04-04T22:35:47.461056","MEAN_MOTION":14.91779281,"ECCENTRICITY":0.00024603,"INCLINATION":35.0014,"RA_OF_ASC_NODE":346.7457,"ARG_OF_PERICENTER":71.9235,"MEAN_ANOMALY":288.1738,"EPHEMERIS_TYPE":0,"CLASSIFICATION_TYPE":"U","NORAD_CAT_ID":68139,"ELEMENT_SET_NO":999,"REV_AT_EPOCH":342,"BSTAR":0.00035351893,"MEAN_MOTION_DOT":3.605e-5,"MEAN_MOTION_DDOT":0},{"OBJECT_NAME":"SHIYAN-30 04","OBJECT_ID":"2026-048B","EPOCH":"2026-04-04T22:36:47.523744","MEAN_MOTION":14.91776795,"ECCENTRICITY":9.506e-5,"INCLINATION":34.9929,"RA_OF_ASC_NODE":346.743,"ARG_OF_PERICENTER":82.9254,"MEAN_ANOMALY":277.1559,"EPHEMERIS_TYPE":0,"CLASSIFICATION_TYPE":"U","NORAD_CAT_ID":68140,"ELEMENT_SET_NO":999,"REV_AT_EPOCH":342,"BSTAR":0.00033897961,"MEAN_MOTION_DOT":3.456e-5,"MEAN_MOTION_DDOT":0},{"OBJECT_NAME":"CZ-2D R/B","OBJECT_ID":"2026-048C","EPOCH":"2026-04-04T22:51:27.461952","MEAN_MOTION":14.9559683,"ECCENTRICITY":0.00159174,"INCLINATION":35.1309,"RA_OF_ASC_NODE":346.279,"ARG_OF_PERICENTER":196.7489,"MEAN_ANOMALY":163.2695,"EPHEMERIS_TYPE":0,"CLASSIFICATION_TYPE":"U","NORAD_CAT_ID":68141,"ELEMENT_SET_NO":999,"REV_AT_EPOCH":343,"BSTAR":0.00020960338,"MEAN_MOTION_DOT":2.347e-5,"MEAN_MOTION_DDOT":0},{"OBJECT_NAME":"STARLINK-36604","OBJECT_ID":"2026-049A","EPOCH":"2026-04-04T19:49:52.393440","MEAN_MOTION":15.75144911,"ECCENTRICITY":0.00016792,"INCLINATION":97.2844,"RA_OF_ASC_NODE":115.3768,"ARG_OF_PERICENTER":73.7833,"MEAN_ANOMALY":286.3617,"EPHEMERIS_TYPE":0,"CLASSIFICATION_TYPE":"U","NORAD_CAT_ID":68142,"ELEMENT_SET_NO":999,"REV_AT_EPOCH":353,"BSTAR":0.00045354719,"MEAN_MOTION_DOT":0.00067928,"MEAN_MOTION_DDOT":0},{"OBJECT_NAME":"STARLINK-36995","OBJECT_ID":"2026-049B","EPOCH":"2026-04-04T22:00:01.999584","MEAN_MOTION":15.75105704,"ECCENTRICITY":0.00013118,"INCLINATION":97.2845,"RA_OF_ASC_NODE":115.4826,"ARG_OF_PERICENTER":93.5674,"MEAN_ANOMALY":84.7805,"EPHEMERIS_TYPE":0,"CLASSIFICATION_TYPE":"U","NORAD_CAT_ID":68143,"ELEMENT_SET_NO":999,"REV_AT_EPOCH":483,"BSTAR":0.0010215814,"MEAN_MOTION_DOT":0.00154468,"MEAN_MOTION_DDOT":0},{"OBJECT_NAME":"STARLINK-37020","OBJECT_ID":"2026-049C","EPOCH":"2026-04-04T22:00:01.999584","MEAN_MOTION":15.75128361,"ECCENTRICITY":0.00013903,"INCLINATION":97.2846,"RA_OF_ASC_NODE":115.5066,"ARG_OF_PERICENTER":78.3247,"MEAN_ANOMALY":154.0359,"EPHEMERIS_TYPE":0,"CLASSIFICATION_TYPE":"U","NORAD_CAT_ID":68144,"ELEMENT_SET_NO":999,"REV_AT_EPOCH":483,"BSTAR":0.00073931611,"MEAN_MOTION_DOT":0.00111295,"MEAN_MOTION_DDOT":0},{"OBJECT_NAME":"STARLINK-36244","OBJECT_ID":"2026-049D","EPOCH":"2026-04-04T21:34:34.134816","MEAN_MOTION":15.75159033,"ECCENTRICITY":0.00015899,"INCLINATION":97.2844,"RA_OF_ASC_NODE":115.43,"ARG_OF_PERICENTER":109,"MEAN_ANOMALY":251.1437,"EPHEMERIS_TYPE":0,"CLASSIFICATION_TYPE":"U","NORAD_CAT_ID":68145,"ELEMENT_SET_NO":999,"REV_AT_EPOCH":354,"BSTAR":0.00087837536,"MEAN_MOTION_DOT":0.00132764,"MEAN_MOTION_DDOT":0},{"OBJECT_NAME":"STARLINK-36980","OBJECT_ID":"2026-049E","EPOCH":"2026-04-04T20:52:18.268032","MEAN_MOTION":15.80802219,"ECCENTRICITY":0.00014288,"INCLINATION":97.285,"RA_OF_ASC_NODE":115.4711,"ARG_OF_PERICENTER":101.3455,"MEAN_ANOMALY":258.7973,"EPHEMERIS_TYPE":0,"CLASSIFICATION_TYPE":"U","NORAD_CAT_ID":68146,"ELEMENT_SET_NO":999,"REV_AT_EPOCH":354,"BSTAR":0.00088191599,"MEAN_MOTION_DOT":0.00172051,"MEAN_MOTION_DDOT":0},{"OBJECT_NAME":"STARLINK-37055","OBJECT_ID":"2026-049F","EPOCH":"2026-04-04T20:54:27.877536","MEAN_MOTION":15.80810307,"ECCENTRICITY":7.861e-5,"INCLINATION":97.285,"RA_OF_ASC_NODE":115.4687,"ARG_OF_PERICENTER":100.369,"MEAN_ANOMALY":259.7667,"EPHEMERIS_TYPE":0,"CLASSIFICATION_TYPE":"U","NORAD_CAT_ID":68147,"ELEMENT_SET_NO":999,"REV_AT_EPOCH":354,"BSTAR":0.0009376194,"MEAN_MOTION_DOT":0.0018323,"MEAN_MOTION_DDOT":0},{"OBJECT_NAME":"STARLINK-36981","OBJECT_ID":"2026-049G","EPOCH":"2026-04-04T20:50:08.328480","MEAN_MOTION":15.80781608,"ECCENTRICITY":0.00012467,"INCLINATION":97.2854,"RA_OF_ASC_NODE":115.473,"ARG_OF_PERICENTER":97.0217,"MEAN_ANOMALY":263.1193,"EPHEMERIS_TYPE":0,"CLASSIFICATION_TYPE":"U","NORAD_CAT_ID":68148,"ELEMENT_SET_NO":999,"REV_AT_EPOCH":354,"BSTAR":0.00056709621,"MEAN_MOTION_DOT":0.00109686,"MEAN_MOTION_DDOT":0}]
